SCD 1                   
1 22490U 93009B   24143.18446653  .00000795  00000+0  16943-3 0  9995
2 22490  24.9680 192.9293 0042757  60.8538 335.3791 14.45280228651995
TECHSAT 1B (GO-32)      
1 25397U 98043D   24143.45129189  .00000269  00000+0  13702-3 0  9995
2 25397  98.9202 109.7927 0000717 176.0287 184.0896 14.24045197343978
SCD 2                   
1 25504U 98060A   24142.97156240  .00000964  00000+0  22154-3 0  9991
2 25504  24.9961  53.4884 0017160  56.1545  34.5418 14.44763212350818
LANDSAT 7               
1 25682U 99020A   24143.54433976  .00001145  00000+0  24426-3 0  9999
2 25682  97.8891 171.5421 0001838  88.3403  36.3577 14.60657127335454
DLR-TUBSAT              
1 25757U 99029B   24143.45939121  .00000400  00000+0  11089-3 0  9998
2 25757  98.5846 106.8125 0015248 126.7802 233.4795 14.51897094323668
TERRA                   
1 25994U 99068A   24143.53010090  .00001207  00000+0  26227-3 0  9994
2 25994  98.0491 207.7701 0003391  89.2085  17.6229 14.59767734299420
MAROC-TUBSAT            
1 27004U 01056D   24143.06046139  .00000002  00000+0  54899-4 0  9998
2 27004  99.7300 297.2559 0019031 281.4643 204.2587 13.70204549122631
AQUA                    
1 27424U 02022A   24143.53419469  .00002224  00000+0  48059-3 0  9998
2 27424  98.3293  92.8104 0001481 112.6662 358.6761 14.59299472172971
IRS-P6 (RESOURCESAT-1)  
1 28051U 03046A   24143.53053003  .00000776  00000+0  27720-3 0  9992
2 28051  98.2951 201.7970 0066095  86.1807  49.8281 14.35458536 72111
SHIYAN 1 (SY-1)         
1 28220U 04012A   24143.04285972  .00012589  00000+0  75061-3 0  9998
2 28220  97.9657 169.7052 0011140 118.0810 242.1546 15.11264730 96228
AURA                    
1 28376U 04026A   24143.16579802  .00002182  00000+0  47879-3 0  9990
2 28376  98.2500  88.1849 0001934 104.6257 255.5156 14.58586534 55921
IRS-P5 (CARTOSAT-1)     
1 28649U 05017A   24143.10285693  .00002984  00000+0  33981-3 0  9999
2 28649  97.6157 187.6053 0002583  77.6887 282.4619 14.86888957 31355
SINAH 1                 
1 28893U 05043D   24143.20127365  .00001268  00000+0  25785-3 0  9998
2 28893  98.1905 267.2255 0015976 122.3158 237.9593 14.62715744990190
EROS B                  
1 29079U 06014A   24143.52387231  .00022721  00000+0  11622-2 0  9990
2 29079  97.3333 258.6607 0009802 296.5462  63.4766 15.16604179  3649
RESURS-DK 1             
1 29228U 06021A   24142.40739748  .00005245  00000+0  35517-3 0  9996
2 29228  69.9331 130.4265 0002531   9.8498 350.2715 15.07094048988282
ARIRANG-2 (KOMPSAT-2)   
1 29268U 06031A   24143.48154955  .00000836  00000+0  16969-3 0  9992
2 29268  97.8665 352.9585 0013698 313.3768 111.5822 14.63555838950984
LAPAN-TUBSAT            
1 29709U 07001A   24143.52133474  .00001616  00000+0  20072-3 0  9995
2 29709  98.0674 118.4451 0013788 121.0262 239.2307 14.83961090939006
HAIYANG-1B              
1 31113U 07010A   24142.93856406  .00000314  00000+0  13613-3 0  9995
2 31113  98.2949 146.1681 0012352 285.7380  74.2441 14.30602899892480
COSMO-SKYMED 1          
1 31598U 07023A   24143.48193323  .00001406  00000+0  18309-3 0  9999
2 31598  97.8866 327.0055 0001612  85.1767 274.9630 14.82162658917391
TERRASAR-X              
1 31698U 07026A   24142.82635131  .00003693  00000+0  17893-3 0  9995
2 31698  97.4451 150.3534 0002116  88.1365 272.0112 15.19154932939052
WORLDVIEW-1 (WV-1)      
1 32060U 07041A   24142.88859365  .00015770  00000+0  64034-3 0  9997
2 32060  97.3780 262.6277 0002274  17.4127 342.7189 15.24667716927711
YAOGAN-3                
1 32289U 07055A   24143.54110022  .00004392  00000+0  52054-3 0  9996
2 32289  97.8883 169.0919 0001776  84.9572 275.1846 14.85042689893527
COSMO-SKYMED 2          
1 32376U 07059A   24143.51567915  .00001354  00000+0  17663-3 0  9993
2 32376  97.8864 327.0359 0001337  86.8677 273.2689 14.82159688890141
RADARSAT-2              
1 32382U 07061A   24143.49251650  .00000200  00000+0  94319-4 0  9999
2 32382  98.5778 150.2345 0001231  89.8920 270.2403 14.29984928858068
CARTOSAT-2A             
1 32783U 08021A   24143.46130414  .00002056  00000+0  28715-3 0  9999
2 32783  97.8671 202.4689 0012967  48.1703 312.0614 14.78651927867202
HUANJING 1A (HJ-1A)     
1 33320U 08041A   24143.53821392  .00003035  00000+0  40765-3 0  9996
2 33320  97.6309 151.8202 0022069  94.9922 265.3811 14.79838071846563
HUANJING 1B (HJ-1B)     
1 33321U 08041B   24143.54765138  .00002286  00000+0  30355-3 0  9994
2 33321  97.6264 156.3699 0039581 138.1820 222.2429 14.80165759846586
GEOEYE 1                
1 33331U 08042A   24143.48521059  .00001544  00000+0  29991-3 0  9991
2 33331  98.0995 216.2024 0005802 241.1821 118.8800 14.64553649839559
THEOS                   
1 33396U 08049A   24143.51664883  .00000227  00000+0  12696-3 0  9997
2 33396  98.6584 209.9360 0001200  89.8124 270.3191 14.20072111810731
COSMO-SKYMED 3          
1 33412U 08054A   24143.49865954  .00007080  00000+0  61341-3 0  9996
2 33412  97.8779 340.0265 0014580 302.7907  57.1909 14.97352927843441
YAOGAN-4                
1 33446U 08061A   24143.39634009  .00003069  00000+0  41429-3 0  9993
2 33446  97.8794  75.7675 0015488  15.4888 344.6795 14.79735518833746
GOSAT (IBUKI)           
1 33492U 09002A   24142.86858306  .00002181  00000+0  39281-3 0  9996
2 33492  98.0354 254.8654 0001238  90.7915 269.3432 14.67558248820538
YAOGAN-6                
1 34839U 09021A   24143.44265580  .00024086  00000+0  47388-3 0  9999
2 34839  97.1694 111.1548 0014847 272.2563  87.6988 15.47135591839475
DEIMOS-1                
1 35681U 09041A   24143.52335829  .00001483  00000+0  23656-3 0  9998
2 35681  97.6799 326.8241 0002823 100.0554 260.0974 14.73282388795531
DUBAISAT-1              
1 35682U 09041B   24143.37074178  .00002633  00000+0  43170-3 0  9990
2 35682  97.9029 280.3641 0010613 342.8551  17.2296 14.71505199793845
OCEANSAT-2              
1 35931U 09051A   24143.47682648 -.00000022  00000+0  10873-4 0  9992
2 35931  98.2651 194.7403 0016423 204.4284 155.6106 13.99459668773621
WORLDVIEW-2 (WV-2)      
1 35946U 09055A   24143.50181319  .00000457  00000+0  16948-3 0  9994
2 35946  98.4364 216.8089 0003211 325.5974  34.5004 14.36794014767206
SMOS                    
1 36036U 09059A   24143.13997834  .00000886  00000+0  29652-3 0  9997
2 36036  98.4431 330.4669 0001319  84.7053 275.4286 14.39770657764809
YAOGAN-7                
1 36110U 09069A   24143.52154609  .00001334  00000+0  19966-3 0  9995
2 36110  98.1091  19.2690 0024442 313.0311  46.8851 14.76207426778100
TANDEM-X                
1 36605U 10030A   24142.82635051  .00003941  00000+0  19073-3 0  9996
2 36605  97.4452 150.3509 0001807  89.7764 270.3677 15.19155471771807
CARTOSAT-2B             
1 36795U 10035A   24143.49786903  .00002193  00000+0  30582-3 0  9994
2 36795  97.8612 202.1620 0013468 119.1760 241.0801 14.78647888748258
YAOGAN-10               
1 36834U 10038A   24143.50131931  .00001782  00000+0  22701-3 0  9995
2 36834  97.9493 160.7819 0001694  86.2872  75.6785 14.82778267745198
COSMO-SKYMED 4          
1 37216U 10060A   24143.19080719  .00001377  00000+0  17951-3 0  9998
2 37216  97.8866 326.7193 0001524  91.1520 268.9868 14.82159209732646
RESOURCESAT-2           
1 37387U 11015A   24143.47391863 -.00000013  00000+0  13485-4 0  9990
2 37387  98.5780 209.9496 0004355 176.3695 183.7515 14.21695091679336
HAIYANG-2A              
1 37781U 11043A   24143.50697314  .00000032  00000+0  74780-4 0  9998
2 37781  99.3256 147.4179 0001501 114.9008 245.2299 13.78781671642795
RASAT                   
1 37791U 11044D   24143.52434439  .00001517  00000+0  28266-3 0  9995
2 37791  98.0769 235.4109 0022507  66.9032 350.2813 14.66308817682387
SRMSAT                  
1 37841U 11058D   24141.83403160  .00000793  00000+0  28911-3 0  9997
2 37841  19.9737 322.2238 0011801 153.6581 327.2201 14.11110883650694
YAOGAN-13               
1 37941U 11072A   24143.50018934  .00032716  00000+0  75182-3 0  9993
2 37941  97.7181 125.6895 0004327  98.2817 261.8920 15.42608185692517
PLEIADES 1A             
1 38012U 11076F   24143.47801134  .00001104  00000+0  24730-3 0  9995
2 38012  98.2041 218.2833 0001239  81.4073 335.6368 14.58571502661842
ZIYUAN 1-02C (ZY 1-02C) 
1 38038U 11079A   24143.52754431  .00001197  00000+0  42003-3 0  9994
2 38038  98.4984 212.2312 0007436  52.3230  55.6830 14.36801144650688
ZIYUAN 3-1 (ZY 3-1)     
1 38046U 12001A   24143.49747092  .00018531  00000+0  61759-3 0  9999
2 38046  97.2481 206.0135 0004181 212.8385 147.2598 15.31139575687001
ARIRANG-3 (KOMPSAT-3)   
1 38338U 12025B   24143.48935759  .00001568  00000+0  31695-3 0  9995
2 38338  98.2611  89.7392 0009432 327.2666  32.7950 14.62763146640985
KANOPUS-V 1             
1 38707U 12039A   24142.81085775  .00059810  00000+0  11636-2 0  9995
2 38707  97.4969  80.3201 0004482 113.9985 246.1734 15.47377889657137
EXACTVIEW-1 (ADS-1B)    
1 38709U 12039C   24143.25622916  .00000409  00000+0  19626-3 0  9998
2 38709  98.9496 234.6287 0010935 184.7704 175.3372 14.24450707615065
SPOT 6                  
1 38755U 12047A   24143.48220048  .00001106  00000+0  24759-3 0  9991
2 38755  98.2232 210.3946 0001044  92.1200 268.0118 14.58568926622925
PLEIADES 1B             
1 39019U 12068A   24143.50169549  .00001106  00000+0  24764-3 0  9995
2 39019  98.1962 218.3545 0001320  90.5688 269.5663 14.58583781610698
GOKTURK 2               
1 39030U 12073A   24143.50137874  .00001338  00000+0  21136-3 0  9997
2 39030  97.7561   5.5272 0000875  87.8024 272.3285 14.73882039613152
LANDSAT 8               
1 39084U 13008A   24143.52251055  .00001024  00000+0  23714-3 0  9991
2 39084  98.1843 213.4784 0001325  92.6617 267.4733 14.57124639599670
SARAL                   
1 39086U 13009A   24142.95567258  .00000349  00000+0  14510-3 0  9998
2 39086  98.5511 328.4354 0002285  34.3034 325.8297 14.32415060587327
GAOFEN-1                
1 39150U 13018A   24143.51296478  .00001948  00000+0  28620-3 0  9999
2 39150  97.9897 216.1501 0020183 175.0949 185.0462 14.76486751596773
